     3.04           N: GNSS NAV DATA    E: GALILEO          RINEX VERSION / TYPE
sbf2rin-13.8.0                          20211216 002245 UTC PGM / RUN BY / DATE 
GAL    5.3500E+01  3.9844E-01 -2.7771E-03  0.0000E+00       IONOSPHERIC CORR    
                                                            COMMENT             
                                                            COMMENT             
                                                            COMMENT             
ABPO                                    MARKER NAME         COMMENT
33302M001                               MARKER NUMBER       COMMENT
  4097216.5539  4429119.1897 -2065771.1988                  COMMENT
                                                            END OF HEADER       
E36 2021 12 15 18 50 00-3.042824682780E-04-5.272227099340E-12 0.000000000000E+00
     3.300000000000E+01-1.636250000000E+02 2.264380034803E-09 2.151858110053E+00
    -7.595866918564E-06 2.627794165164E-04 8.573755621910E-06 5.440611322403E+03
     3.270000000000E+05-3.166496753693E-08-9.539422236598E-01 5.029141902924E-08
     9.966036519709E-01 1.720937500000E+02-1.470896477519E+00-5.271290999000E-09
    -2.114373786441E-10 5.170000000000E+02 2.188000000000E+03
     3.120000000000E+00 0.000000000000E+00 6.053596735001E-09 6.984919309616E-09
     3.276650000000E+05
E24 2021 12 15 18 50 00-1.281536300667E-03-2.063416104647E-11 0.000000000000E+00
     3.300000000000E+01 1.673750000000E+02 2.851190192087E-09 3.118469944516E+00
     7.793307304382E-06 6.212691077963E-04 7.633119821548E-06 5.440618961334E+03
     3.270000000000E+05 2.421438694000E-08-3.033697705389E+00-1.490116119385E-08
     9.734661279259E-01 1.803750000000E+02 4.510526485419E-01-5.482371219910E-09
     9.214669542259E-11 5.170000000000E+02 2.188000000000E+03
     3.120000000000E+00 0.000000000000E+00-1.862645149231E-09-2.793967723846E-09
     3.276840000000E+05
E05 2021 12 15 18 50 00-2.262245398015E-04 2.870592652471E-12 0.000000000000E+00
     3.300000000000E+01-7.281250000000E+00 3.689082236511E-09 2.980398165021E+00
    -3.669410943985E-07 1.533734612167E-04 4.455447196960E-06 5.440606815338E+03
     3.270000000000E+05-2.048909664154E-08 1.148773644679E+00 2.048909664154E-08
     9.552834606020E-01 2.385937500000E+02 1.864076790509E+00-5.800955918813E-09
     8.428922527028E-11 2.580000000000E+02 2.188000000000E+03
     3.120000000000E+00 0.000000000000E+00 4.190951585770E-09 0.000000000000E+00
     3.277400000000E+05
E25 2021 12 15 18 50 00-5.569744971581E-04-1.222133505507E-12 0.000000000000E+00
     3.300000000000E+01 1.857500000000E+02 2.743685714094E-09-2.790359066135E+00
     8.549541234970E-06 3.082309849560E-04 7.888302206993E-06 5.440632068634E+03
     3.270000000000E+05 2.793967723846E-08-3.038153496385E+00 3.725290298462E-09
     9.755537134879E-01 1.769687500000E+02-7.521502779181E-01-5.442726711414E-09
     1.346484657919E-10 2.580000000000E+02 2.188000000000E+03
     3.120000000000E+00 0.000000000000E+00 4.190951585770E-09 0.000000000000E+00
     3.277400000000E+05
E09 2021 12 15 18 50 00 5.428890872281E-03-1.300293206441E-11 0.000000000000E+00
     3.300000000000E+01-1.256250000000E+01 3.588006597734E-09-1.271543770662E+00
    -5.215406417847E-07 2.298922045156E-04 4.531815648079E-06 5.440609054565E+03
     3.270000000000E+05-9.313225746155E-09 1.144861727126E+00-1.490116119385E-08
     9.612580809432E-01 2.435937500000E+02 6.033513765781E-01-5.728095741037E-09
     8.143196339671E-11 2.580000000000E+02 2.188000000000E+03
     3.120000000000E+00 0.000000000000E+00 2.095475792885E-09 0.000000000000E+00
     3.277400000000E+05
E03 2021 12 15 18 50 00-5.066901794635E-04-4.021671884402E-12 0.000000000000E+00
     3.300000000000E+01-3.468750000000E+00 3.737655688362E-09 3.016726218664E+00
    -3.352761268616E-07 3.011001972482E-04 4.375353455544E-06 5.440608133316E+03
     3.270000000000E+05 1.303851604462E-08 1.148779862081E+00 1.862645149231E-09
     9.552701012341E-01 2.434062500000E+02 1.035575302451E+00-5.808813388965E-09
     7.821754378894E-11 2.580000000000E+02 2.188000000000E+03
     3.120000000000E+00 0.000000000000E+00 3.725290298462E-09 0.000000000000E+00
     3.277400000000E+05
E24 2021 12 15 18 50 00-1.281535543967E-03-2.063416104647E-11 0.000000000000E+00
     3.300000000000E+01 1.673750000000E+02 2.851190192087E-09 3.118469944516E+00
     7.793307304382E-06 6.212691077963E-04 7.633119821548E-06 5.440618961334E+03
     3.270000000000E+05 2.421438694000E-08-3.033697705389E+00-1.490116119385E-08
     9.734661279259E-01 1.803750000000E+02 4.510526485419E-01-5.482371219910E-09
     9.214669542259E-11 2.580000000000E+02 2.188000000000E+03
     3.120000000000E+00 0.000000000000E+00-1.862645149231E-09 0.000000000000E+00
     3.277400000000E+05
E15 2021 12 15 18 50 00 7.750914664939E-04-2.231104190287E-12 0.000000000000E+00
     3.300000000000E+01-1.852500000000E+02 2.375098932404E-09 7.600474886058E-01
    -8.640810847282E-06 3.446997143328E-04 7.603317499161E-06 5.440611042023E+03
     3.270000000000E+05 4.284083843231E-08-9.539773234533E-01-5.587935447693E-09
     9.965569965876E-01 1.951562500000E+02-1.644902852989E+00-5.355223066536E-09
    -2.725113511916E-10 2.580000000000E+02 2.188000000000E+03
     3.120000000000E+00 0.000000000000E+00 5.820766091347E-09 0.000000000000E+00
     3.277400000000E+05
E36 2021 12 15 18 50 00-3.042832831852E-04-5.272227099340E-12 0.000000000000E+00
     3.300000000000E+01-1.636250000000E+02 2.264380034803E-09 2.151858110053E+00
    -7.595866918564E-06 2.627794165164E-04 8.573755621910E-06 5.440611322403E+03
     3.270000000000E+05-3.166496753693E-08-9.539422236598E-01 5.029141902924E-08
     9.966036519709E-01 1.720937500000E+02-1.470896477519E+00-5.271290999000E-09
    -2.114373786441E-10 2.580000000000E+02 2.188000000000E+03
     3.120000000000E+00 0.000000000000E+00 6.053596735001E-09 0.000000000000E+00
     3.277400000000E+05
E02 2021 12 15 18 50 00 2.670704852790E-04 2.543742994021E-12 0.000000000000E+00
     3.300000000000E+01 1.931875000000E+02 2.820474626946E-09 2.027497136731E+00
     8.942559361458E-06 4.344481276348E-04 8.337199687958E-06 5.440622718811E+03
     3.270000000000E+05-3.725290298462E-09-3.035274829094E+00-1.862645149231E-08
     9.759780314139E-01 1.679375000000E+02-4.693332611570E-02-5.452727127972E-09
     1.814361289716E-10 5.170000000000E+02 2.188000000000E+03
     3.120000000000E+00 0.000000000000E+00-9.313225746155E-10-1.629814505577E-09
     3.278150000000E+05
E02 2021 12 15 18 50 00 2.670712419786E-04 2.543742994021E-12 0.000000000000E+00
     3.300000000000E+01 1.931875000000E+02 2.820474626946E-09 2.027497136731E+00
     8.942559361458E-06 4.344481276348E-04 8.337199687958E-06 5.440622718811E+03
     3.270000000000E+05-3.725290298462E-09-3.035274829094E+00-1.862645149231E-08
     9.759780314139E-01 1.679375000000E+02-4.693332611570E-02-5.452727127972E-09
     1.814361289716E-10 2.580000000000E+02 2.188000000000E+03
     3.120000000000E+00 0.000000000000E+00-9.313225746155E-10 0.000000000000E+00
     3.278900000000E+05
E31 2021 12 15 18 50 00-4.894004086964E-04-4.689582056017E-13 0.000000000000E+00
     3.300000000000E+01 1.619687500000E+02 2.856547558100E-09-1.062352246298E+00
     7.618218660355E-06 3.244627732784E-04 7.729977369308E-06 5.440629409790E+03
     3.270000000000E+05 3.539025783539E-08-3.038199234519E+00 4.097819328308E-08
     9.755227479010E-01 1.823437500000E+02-9.122360194118E-01-5.485942797252E-09
     9.571827276455E-11 5.170000000000E+02 2.188000000000E+03
     3.120000000000E+00 0.000000000000E+00 5.587935447693E-09 6.286427378654E-09
     3.280550000000E+05
E05 2021 12 15 19 00 00-2.262221532874E-04 2.870592652471E-12 0.000000000000E+00
     3.400000000000E+01-7.687500000000E+00 3.681939081827E-09 3.054929867874E+00
    -3.650784492493E-07 1.533305039629E-04 4.455447196960E-06 5.440606910706E+03
     3.276000000000E+05-2.607703208923E-08 1.148770130750E+00 1.676380634308E-08
     9.552835118041E-01 2.385625000000E+02 1.863931133608E+00-5.797741499205E-09
     8.678932940965E-11 5.170000000000E+02 2.188000000000E+03
     3.120000000000E+00 0.000000000000E+00 4.190951585770E-09 4.889443516731E-09
     3.282650000000E+05
E09 2021 12 15 19 00 00 5.428883130662E-03-1.301714291913E-11 0.000000000000E+00
     3.400000000000E+01-1.259375000000E+01 3.584077862658E-09-1.196955678168E+00
    -5.234032869339E-07 2.299547195435E-04 4.507601261139E-06 5.440609209061E+03
     3.276000000000E+05-7.450580596924E-09 1.144858284880E+00-1.676380634308E-08
     9.612581365341E-01 2.442187500000E+02 6.031491632636E-01-5.726667110100E-09
     8.143196339671E-11 5.170000000000E+02 2.188000000000E+03
     3.120000000000E+00 0.000000000000E+00 2.095475792885E-09 2.328306436539E-09
     3.282650000000E+05
E15 2021 12 15 19 00 00 7.750907680020E-04-2.216893335572E-12 0.000000000000E+00
     3.400000000000E+01-1.846562500000E+02 2.384385033493E-09 8.348497318252E-01
    -8.620321750641E-06 3.446710761636E-04 7.633119821548E-06 5.440610752106E+03
     3.276000000000E+05 3.911554813385E-08-9.539805126147E-01-1.862645149231E-09
     9.965568181116E-01 1.941562500000E+02-1.645320216203E+00-5.358437486144E-09
    -2.732256666600E-10 5.170000000000E+02 2.188000000000E+03
     3.120000000000E+00 0.000000000000E+00 5.820766091347E-09 6.286427378654E-09
     3.282650000000E+05
E36 2021 12 15 19 00 00-3.042856114917E-04-5.272227099340E-12 0.000000000000E+00
     3.400000000000E+01-1.639687500000E+02 2.266165823474E-09 2.226347578462E+00
    -7.607042789459E-06 2.628378570080E-04 8.562579751015E-06 5.440611192703E+03
     3.276000000000E+05-4.284083843231E-08-9.539453484528E-01 4.097819328308E-08
     9.966035715105E-01 1.725000000000E+02-1.471001082014E+00-5.268790894861E-09
    -2.196520065306E-10 5.170000000000E+02 2.188000000000E+03
     3.120000000000E+00 0.000000000000E+00 6.053596735001E-09 6.984919309616E-09
     3.282650000000E+05
